{"type": "FeatureCollection", "features": [ {"type": "Feature", "properties": {"norad_id": 66836, "name": "STARLINK-35838", "group": "last-30-days", "lat": 20.179622209061208, "lon": -164.81049649090997, "alt_km": 372.0101473362156, "timestamp": "2025-12-16T17:51:09.662038+00:00", "meta": {"OBJECT_NAME": "STARLINK-35838", "OBJECT_ID": "2025-280R", "EPOCH": "2025-12-15T22:00:01.999584", "MEAN_MOTION": 15.6889667, "ECCENTRICITY": 0.00038228, "INCLINATION": 69.9978, "RA_OF_ASC_NODE": 189.8103, "ARG_OF_PERICENTER": 274.5703, "MEAN_ANOMALY": 121.7287, "EPHEMERIS_TYPE": 0, "CLASSIFICATION_TYPE": "U", "NORAD_CAT_ID": 66836, "ELEMENT_SET_NO": 999, "REV_AT_EPOCH": 340, "BSTAR": -0.019063535, "MEAN_MOTION_DOT": -0.01946614, "MEAN_MOTION_DDOT": 0}, "tle": {"line1": "1 66836U 25280R   25349.91668981 -.01946614  00000+0 -19064-1 0  9990", "line2": "2 66836  69.9978 189.8103 0003822 274.5703 121.7287 15.68896670  3403"}}, "geometry": {"type": "Point", "coordinates": [-164.81049649090997, 20.179622209061208]}}, {"type": "Feature", "properties": {"norad_id": 66837, "name": "STARLINK-35729", "group": "last-30-days", "lat": 22.00762466699234, "lon": -164.04059974492787, "alt_km": 371.7647577100697, "timestamp": "2025-12-16T17:51:09.662048+00:00", "meta": {"OBJECT_NAME": "STARLINK-35729", "OBJECT_ID": "2025-280S", "EPOCH": "2025-12-15T22:00:01.999584", "MEAN_MOTION": 15.68880391, "ECCENTRICITY": 0.0003885, "INCLINATION": 69.9978, "RA_OF_ASC_NODE": 189.8075, "ARG_OF_PERICENTER": 272.9629, "MEAN_ANOMALY": 125.2579, "EPHEMERIS_TYPE": 0, "CLASSIFICATION_TYPE": "U", "NORAD_CAT_ID": 66837, "ELEMENT_SET_NO": 999, "REV_AT_EPOCH": 340, "BSTAR": -0.018729482, "MEAN_MOTION_DOT": -0.01915252, "MEAN_MOTION_DDOT": 0}, "tle": {"line1": "1 66837U 25280S   25349.91668981 -.01915252  00000+0 -18729-1 0  9992", "line2": "2 66837  69.9978 189.8075 0003885 272.9629 125.2579 15.68880391  3406"}}, "geometry": {"type": "Point", "coordinates": [-164.04059974492787, 22.00762466699234]}}, {"type": "Feature", "properties": {"norad_id": 66838, "name": "STARLINK-35886", "group": "last-30-days", "lat": 25.515180930353317, "lon": -162.4992863757735, "alt_km": 371.24649687672354, "timestamp": "2025-12-16T17:51:09.662058+00:00", "meta": {"OBJECT_NAME": "STARLINK-35886", "OBJECT_ID": "2025-280T", "EPOCH": "2025-12-15T22:00:01.999584", "MEAN_MOTION": 15.68892502, "ECCENTRICITY": 0.00036106, "INCLINATION": 69.998, "RA_OF_ASC_NODE": 189.8026, "ARG_OF_PERICENTER": 276.0433, "MEAN_ANOMALY": 126.0084, "EPHEMERIS_TYPE": 0, "CLASSIFICATION_TYPE": "U", "NORAD_CAT_ID": 66838, "ELEMENT_SET_NO": 999, "REV_AT_EPOCH": 340, "BSTAR": -0.019051211, "MEAN_MOTION_DOT": -0.01944991, "MEAN_MOTION_DDOT": 0}, "tle": {"line1": "1 66838U 25280T   25349.91668981 -.01944991  00000+0 -19051-1 0  9994", "line2": "2 66838  69.9980 189.8026 0003610 276.0433 126.0084 15.68892502  3407"}}, "geometry": {"type": "Point", "coordinates": [-162.4992863757735, 25.515180930353317]}}, {"type": "Feature", "properties": {"norad_id": 66839, "name": "STARLINK-35717", "group": "last-30-days", "lat": 23.787267916412183, "lon": -163.27005355563577, "alt_km": 371.52224243395176, "timestamp": "2025-12-16T17:51:09.662068+00:00", "meta": {"OBJECT_NAME": "STARLINK-35717", "OBJECT_ID": "2025-280U", "EPOCH": "2025-12-15T22:00:01.999584", "MEAN_MOTION": 15.68878354, "ECCENTRICITY": 0.00038594, "INCLINATION": 69.9978, "RA_OF_ASC_NODE": 189.8048, "ARG_OF_PERICENTER": 273.3526, "MEAN_ANOMALY": 126.7848, "EPHEMERIS_TYPE": 0, "CLASSIFICATION_TYPE": "U", "NORAD_CAT_ID": 66839, "ELEMENT_SET_NO": 999, "REV_AT_EPOCH": 340, "BSTAR": -0.018710712, "MEAN_MOTION_DOT": -0.01913379, "MEAN_MOTION_DDOT": 0}, "tle": {"line1": "1 66839U 25280U   25349.91668981 -.01913379  00000+0 -18711-1 0  9993", "line2": "2 66839  69.9978 189.8048 0003859 273.3526 126.7848 15.68878354  3401"}}, "geometry": {"type": "Point", "coordinates": [-163.27005355563577, 23.787267916412183]}}, {"type": "Feature", "properties": {"norad_id": 66840, "name": "STARLINK-35837", "group": "last-30-days", "lat": 27.313798360813482, "lon": -161.67057871597254, "alt_km": 371.1171012343093, "timestamp": "2025-12-16T17:51:09.662086+00:00", "meta": {"OBJECT_NAME": "STARLINK-35837", "OBJECT_ID": "2025-280V", "EPOCH": "2025-12-15T22:00:01.999584", "MEAN_MOTION": 15.68888811, "ECCENTRICITY": 0.00037319, "INCLINATION": 69.9983, "RA_OF_ASC_NODE": 189.8008, "ARG_OF_PERICENTER": 273.2684, "MEAN_ANOMALY": 130.7004, "EPHEMERIS_TYPE": 0, "CLASSIFICATION_TYPE": "U", "NORAD_CAT_ID": 66840, "ELEMENT_SET_NO": 999, "REV_AT_EPOCH": 340, "BSTAR": -0.018905956, "MEAN_MOTION_DOT": -0.019317, "MEAN_MOTION_DDOT": 0}, "tle": {"line1": "1 66840U 25280V   25349.91668981 -.01931700  00000+0 -18906-1 0  9999", "line2": "2 66840  69.9983 189.8008 0003731 273.2684 130.7004 15.68888811  3406"}}, "geometry": {"type": "Point", "coordinates": [-161.67057871597254, 27.313798360813482]}}, {"type": "Feature", "properties": {"norad_id": 66841, "name": "STARLINK-35715", "group": "last-30-days", "lat": 29.07050343581451, "lon": -160.8326787727865, "alt_km": 370.78654348639884, "timestamp": "2025-12-16T17:51:09.662098+00:00", "meta": {"OBJECT_NAME": "STARLINK-35715", "OBJECT_ID": "2025-280W", "EPOCH": "2025-12-15T22:00:01.999584", "MEAN_MOTION": 15.68892043, "ECCENTRICITY": 0.00038151, "INCLINATION": 69.9981, "RA_OF_ASC_NODE": 189.7985, "ARG_OF_PERICENTER": 277.2996, "MEAN_ANOMALY": 128.5847, "EPHEMERIS_TYPE": 0, "CLASSIFICATION_TYPE": "U", "NORAD_CAT_ID": 66841, "ELEMENT_SET_NO": 999, "REV_AT_EPOCH": 340, "BSTAR": -0.018991439, "MEAN_MOTION_DOT": -0.01939753, "MEAN_MOTION_DDOT": 0}, "tle": {"line1": "1 66841U 25280W   25349.91668981 -.01939753  00000+0 -18991-1 0  9990", "line2": "2 66841  69.9981 189.7985 0003815 277.2996 128.5847 15.68892043  3403"}}, "geometry": {"type": "Point", "coordinates": [-160.8326787727865, 29.07050343581451]}}, {"type": "Feature", "properties": {"norad_id": 66842, "name": "STARLINK-35769", "group": "last-30-days", "lat": 30.822218101426245, "lon": -159.9659709420684, "alt_km": 370.52001363708587, "timestamp": "2025-12-16T17:51:09.662108+00:00", "meta": {"OBJECT_NAME": "STARLINK-35769", "OBJECT_ID": "2025-280X", "EPOCH": "2025-12-15T22:00:01.999584", "MEAN_MOTION": 15.68897151, "ECCENTRICITY": 0.00036625, "INCLINATION": 69.9981, "RA_OF_ASC_NODE": 189.7958, "ARG_OF_PERICENTER": 277.9845, "MEAN_ANOMALY": 129.8145, "EPHEMERIS_TYPE": 0, "CLASSIFICATION_TYPE": "U", "NORAD_CAT_ID": 66842, "ELEMENT_SET_NO": 999, "REV_AT_EPOCH": 340, "BSTAR": -0.019078492, "MEAN_MOTION_DOT": -0.0194784, "MEAN_MOTION_DDOT": 0}, "tle": {"line1": "1 66842U 25280X   25349.91668981 -.01947840  00000+0 -19078-1 0  9994", "line2": "2 66842  69.9981 189.7958 0003662 277.9845 129.8145 15.68897151  3404"}}, "geometry": {"type": "Point", "coordinates": [-159.9659709420684, 30.822218101426245]}}, {"type": "Feature", "properties": {"norad_id": 66843, "name": "STARLINK-35997", "group": "last-30-days", "lat": 34.32902603843662, "lon": -158.11832113458428, "alt_km": 370.0420772901907, "timestamp": "2025-12-16T17:51:09.662118+00:00", "meta": {"OBJECT_NAME": "STARLINK-35997", "OBJECT_ID": "2025-280Y", "EPOCH": "2025-12-15T22:00:01.999584", "MEAN_MOTION": 15.68895425, "ECCENTRICITY": 0.00036362, "INCLINATION": 69.9972, "RA_OF_ASC_NODE": 189.7916, "ARG_OF_PERICENTER": 278.6685, "MEAN_ANOMALY": 132.9646, "EPHEMERIS_TYPE": 0, "CLASSIFICATION_TYPE": "U", "NORAD_CAT_ID": 66843, "ELEMENT_SET_NO": 999, "REV_AT_EPOCH": 340, "BSTAR": -0.01905882, "MEAN_MOTION_DOT": -0.01945914, "MEAN_MOTION_DDOT": 0}, "tle": {"line1": "1 66843U 25280Y   25349.91668981 -.01945914  00000+0 -19059-1 0  9994", "line2": "2 66843  69.9972 189.7916 0003636 278.6685 132.9646 15.68895425  3403"}}, "geometry": {"type": "Point", "coordinates": [-158.11832113458428, 34.32902603843662]}}, {"type": "Feature", "properties": {"norad_id": 66844, "name": "STARLINK-36073", "group": "last-30-days", "lat": 32.585043111503715, "lon": -159.05632569362126, "alt_km": 370.2412314644025, "timestamp": "2025-12-16T17:51:09.662131+00:00", "meta": {"OBJECT_NAME": "STARLINK-36073", "OBJECT_ID": "2025-280Z", "EPOCH": "2025-12-15T22:00:01.999584", "MEAN_MOTION": 15.68894762, "ECCENTRICITY": 0.00036528, "INCLINATION": 69.998, "RA_OF_ASC_NODE": 189.7947, "ARG_OF_PERICENTER": 278.9108, "MEAN_ANOMALY": 130.8051, "EPHEMERIS_TYPE": 0, "CLASSIFICATION_TYPE": "U", "NORAD_CAT_ID": 66844, "ELEMENT_SET_NO": 999, "REV_AT_EPOCH": 340, "BSTAR": -0.019027118, "MEAN_MOTION_DOT": -0.01943015, "MEAN_MOTION_DDOT": 0}, "tle": {"line1": "1 66844U 25280Z   25349.91668981 -.01943015  00000+0 -19027-1 0  9990", "line2": "2 66844  69.9980 189.7947 0003652 278.9108 130.8051 15.68894762  3408"}}, "geometry": {"type": "Point", "coordinates": [-159.05632569362126, 32.585043111503715]}}, {"type": "Feature", "properties": {"norad_id": 66845, "name": "STARLINK-36068", "group": "last-30-days", "lat": 39.56134809451564, "lon": -155.01639331591176, "alt_km": 369.4339600021258, "timestamp": "2025-12-16T17:51:09.662141+00:00", "meta": {"OBJECT_NAME": "STARLINK-36068", "OBJECT_ID": "2025-280AA", "EPOCH": "2025-12-15T22:00:01.999584", "MEAN_MOTION": 15.68881449, "ECCENTRICITY": 0.00036552, "INCLINATION": 69.9979, "RA_OF_ASC_NODE": 189.7842, "ARG_OF_PERICENTER": 275.3714, "MEAN_ANOMALY": 142.0153, "EPHEMERIS_TYPE": 0, "CLASSIFICATION_TYPE": "U", "NORAD_CAT_ID": 66845, "ELEMENT_SET_NO": 999, "REV_AT_EPOCH": 340, "BSTAR": -0.018781451, "MEAN_MOTION_DOT": -0.01919819, "MEAN_MOTION_DDOT": 0}, "tle": {"line1": "1 66845U 25280AA  25349.91668981 -.01919819  00000+0 -18781-1 0  9992", "line2": "2 66845  69.9979 189.7842 0003655 275.3714 142.0153 15.68881449  3404"}}, "geometry": {"type": "Point", "coordinates": [-155.01639331591176, 39.56134809451564]}}]}